start=new Date('2022-03-13T00:00:00.000Z').valueOf();
sats=[{"SITE":"AFETR","REV_AT_EPOCH":"5268","BSTAR":"0.00007717100000","APOAPSIS":"548.246","MEAN_MOTION_DDOT":"0.0000000000000","NORAD_CAT_ID":"48134","EPOCH":"2022-03-12T20:43:58.942560","CENTER_NAME":"EARTH","ECCENTRICITY":"0.00015410","OBJECT_ID":"2021-027AU","ARG_OF_PERICENTER":"76.1139","ELEMENT_SET_NO":"999","REF_FRAME":"TEME","PERIOD":"95.591","OBJECT_NAME":"STARLINK-2476","FILE":"3356931","SEMIMAJOR_AXIS":"6925.314","MEAN_MOTION_DOT":"0.00000868","EPHEMERIS_TYPE":"0","MEAN_ELEMENT_THEORY":"SGP4","GP_ID":"198605474","MEAN_ANOMALY":"284.0022","MEAN_MOTION":"15.06411180","LAUNCH_DATE":"2021-04-07","RA_OF_ASC_NODE":"236.0606","RCS_SIZE":"LARGE","TLE_LINE2":"2 48134  53.0526 236.0606 0001541  76.1139 284.0022 15.06411180 52680","CLASSIFICATION_TYPE":"U","PERIAPSIS":"546.112","TLE_LINE1":"1 48134U 21027AU  22071.86387665  .00000868  00000-0  77171-4 0  9992","OBJECT_TYPE":"PAYLOAD","COUNTRY_CODE":"US","INCLINATION":"53.0526","DECAY_DATE":null,"TIME_SYSTEM":"UTC"},{"LAUNCH_DATE":"2021-04-07","RA_OF_ASC_NODE":"241.1218","RCS_SIZE":"LARGE","TLE_LINE2":"2 48135  53.0521 241.1218 0001366  79.3375 280.7768 15.06406972 52610","CLASSIFICATION_TYPE":"U","PERIAPSIS":"546.246","TLE_LINE1":"1 48135U 21027AV  22071.84956937  .00003108  00000-0  22744-3 0  9990","OBJECT_TYPE":"PAYLOAD","INCLINATION":"53.0521","COUNTRY_CODE":"US","DECAY_DATE":null,"TIME_SYSTEM":"UTC","EPHEMERIS_TYPE":"0","MEAN_ELEMENT_THEORY":"SGP4","GP_ID":"198605224","MEAN_ANOMALY":"280.7768","MEAN_MOTION":"15.06406972","ARG_OF_PERICENTER":"79.3375","OBJECT_ID":"2021-027AV","ELEMENT_SET_NO":"999","REF_FRAME":"TEME","PERIOD":"95.592","OBJECT_NAME":"STARLINK-2478","FILE":"3356931","SEMIMAJOR_AXIS":"6925.327","MEAN_MOTION_DOT":"0.00003108","SITE":"AFETR","REV_AT_EPOCH":"5261","BSTAR":"0.00022744000000","APOAPSIS":"548.138","MEAN_MOTION_DDOT":"0.0000000000000","NORAD_CAT_ID":"48135","EPOCH":"2022-03-12T20:23:22.793568","ECCENTRICITY":"0.00013660","CENTER_NAME":"EARTH"},{"REV_AT_EPOCH":"5268","SITE":"AFETR","BSTAR":"-0.00011456000000","APOAPSIS":"548.246","MEAN_MOTION_DDOT":"0.0000000000000","EPOCH":"2022-03-12T19:45:37.576512","NORAD_CAT_ID":"48136","ECCENTRICITY":"0.00014510","CENTER_NAME":"EARTH","OBJECT_ID":"2021-027AW","ARG_OF_PERICENTER":"75.6659","ELEMENT_SET_NO":"999","REF_FRAME":"TEME","PERIOD":"95.593","OBJECT_NAME":"STARLINK-2479","FILE":"3356931","SEMIMAJOR_AXIS":"6925.376","MEAN_MOTION_DOT":"-0.00001987","EPHEMERIS_TYPE":"0","MEAN_ELEMENT_THEORY":"SGP4","GP_ID":"198603972","MEAN_MOTION":"15.06391024","MEAN_ANOMALY":"284.4491","LAUNCH_DATE":"2021-04-07","RCS_SIZE":"LARGE","RA_OF_ASC_NODE":"236.2353","CLASSIFICATION_TYPE":"U","TLE_LINE2":"2 48136  53.0559 236.2353 0001451  75.6659 284.4491 15.06391024 52688","PERIAPSIS":"546.236","TLE_LINE1":"1 48136U 21027AW  22071.82335158 -.00001987  00000-0 -11456-3 0  9998","INCLINATION":"53.0559","COUNTRY_CODE":"US","OBJECT_TYPE":"PAYLOAD","DECAY_DATE":null,"TIME_SYSTEM":"UTC"},{"CENTER_NAME":"EARTH","ECCENTRICITY":"0.00014280","NORAD_CAT_ID":"48137","EPOCH":"2022-03-12T17:12:57.662784","MEAN_MOTION_DDOT":"0.0000000000000","APOAPSIS":"548.176","BSTAR":"0.00001003700000","SITE":"AFETR","REV_AT_EPOCH":"5294","MEAN_MOTION_DOT":"-0.00000132","SEMIMAJOR_AXIS":"6925.322","FILE":"3356931","OBJECT_NAME":"STARLINK-2480","PERIOD":"95.592","ELEMENT_SET_NO":"999","REF_FRAME":"TEME","OBJECT_ID":"2021-027AX","ARG_OF_PERICENTER":"60.7819","MEAN_ANOMALY":"299.3313","MEAN_MOTION":"15.06408639","MEAN_ELEMENT_THEORY":"SGP4","GP_ID":"198604222","EPHEMERIS_TYPE":"0","TIME_SYSTEM":"UTC","DECAY_DATE":null,"OBJECT_TYPE":"PAYLOAD","INCLINATION":"53.0532","COUNTRY_CODE":"US","TLE_LINE1":"1 48137U 21027AX  22071.71733406 -.00000132  00000-0  10037-4 0  9990","PERIAPSIS":"546.198","TLE_LINE2":"2 48137  53.0532 216.7046 0001428  60.7819 299.3313 15.06408639 52947","CLASSIFICATION_TYPE":"U","RA_OF_ASC_NODE":"216.7046","RCS_SIZE":"LARGE","LAUNCH_DATE":"2021-04-07"},{"MEAN_MOTION_DOT":"0.00000199","OBJECT_NAME":"STARLINK-2481","FILE":"3356931","SEMIMAJOR_AXIS":"6925.371","REF_FRAME":"TEME","ELEMENT_SET_NO":"999","PERIOD":"95.593","ARG_OF_PERICENTER":"81.7289","OBJECT_ID":"2021-027AY","ECCENTRICITY":"0.00014490","CENTER_NAME":"EARTH","NORAD_CAT_ID":"48138","EPOCH":"2022-03-12T20:59:55.160736","APOAPSIS":"548.240","MEAN_MOTION_DDOT":"0.0000000000000","SITE":"AFETR","REV_AT_EPOCH":"5269","BSTAR":"0.00003227100000","DECAY_DATE":null,"TIME_SYSTEM":"UTC","TLE_LINE1":"1 48138U 21027AY  22071.87494399  .00000199  00000-0  32271-4 0  9999","OBJECT_TYPE":"PAYLOAD","COUNTRY_CODE":"US","INCLINATION":"53.0543","TLE_LINE2":"2 48138  53.0543 236.0150 0001449  81.7289 278.3864 15.06392659 52692","CLASSIFICATION_TYPE":"U","PERIAPSIS":"546.233","LAUNCH_DATE":"2021-04-07","RA_OF_ASC_NODE":"236.0150","RCS_SIZE":"LARGE","MEAN_ANOMALY":"278.3864","MEAN_MOTION":"15.06392659","EPHEMERIS_TYPE":"0","GP_ID":"198604974","MEAN_ELEMENT_THEORY":"SGP4"},{"MEAN_MOTION":"15.06401133","MEAN_ANOMALY":"283.4738","EPHEMERIS_TYPE":"0","MEAN_ELEMENT_THEORY":"SGP4","GP_ID":"198605725","TLE_LINE1":"1 48139U 21027AZ  22071.86573080  .00004741  00000-0  33697-3 0  9993","COUNTRY_CODE":"US","INCLINATION":"53.0535","OBJECT_TYPE":"PAYLOAD","DECAY_DATE":null,"TIME_SYSTEM":"UTC","LAUNCH_DATE":"2021-04-07","RCS_SIZE":"LARGE","RA_OF_ASC_NODE":"216.0409","CLASSIFICATION_TYPE":"U","TLE_LINE2":"2 48139  53.0535 216.0409 0001246  76.6390 283.4738 15.06401133 52976","PERIAPSIS":"546.347","EPOCH":"2022-03-12T20:46:39.141120","NORAD_CAT_ID":"48139","CENTER_NAME":"EARTH","ECCENTRICITY":"0.00012460","REV_AT_EPOCH":"5297","SITE":"AFETR","BSTAR":"0.00033697000000","APOAPSIS":"548.073","MEAN_MOTION_DDOT":"0.0000000000000","OBJECT_NAME":"STARLINK-2482","SEMIMAJOR_AXIS":"6925.345","FILE":"3356931","MEAN_MOTION_DOT":"0.00004741","ARG_OF_PERICENTER":"76.6390","OBJECT_ID":"2021-027AZ","ELEMENT_SET_NO":"999","REF_FRAME":"TEME","PERIOD":"95.592"},{"MEAN_MOTION_DDOT":"0.0000000000000","APOAPSIS":"548.185","BSTAR":"-0.00010161000000","REV_AT_EPOCH":"5267","SITE":"AFETR","CENTER_NAME":"EARTH","ECCENTRICITY":"0.00014250","EPOCH":"2022-03-12T18:24:37.382976","NORAD_CAT_ID":"48140","PERIOD":"95.592","ELEMENT_SET_NO":"999","REF_FRAME":"TEME","OBJECT_ID":"2021-027BA","ARG_OF_PERICENTER":"72.4272","MEAN_MOTION_DOT":"-0.00001795","FILE":"3356931","SEMIMAJOR_AXIS":"6925.333","OBJECT_NAME":"STARLINK-2483","MEAN_ELEMENT_THEORY":"SGP4","GP_ID":"198604473","EPHEMERIS_TYPE":"0","MEAN_MOTION":"15.06404958","MEAN_ANOMALY":"287.6873","PERIAPSIS":"546.212","CLASSIFICATION_TYPE":"U","TLE_LINE2":"2 48140  53.0541 236.4906 0001425  72.4272 287.6873 15.06404958 52676","RCS_SIZE":"LARGE","RA_OF_ASC_NODE":"236.4906","LAUNCH_DATE":"2021-04-07","TIME_SYSTEM":"UTC","DECAY_DATE":null,"INCLINATION":"53.0541","COUNTRY_CODE":"US","OBJECT_TYPE":"PAYLOAD","TLE_LINE1":"1 48140U 21027BA  22071.76709934 -.00001795  00000-0 -10161-3 0  9992"},{"CLASSIFICATION_TYPE":"U","TLE_LINE2":"2 48141  53.0521 236.0924 0001484  79.3222 280.7934 15.06397105 52708","PERIAPSIS":"546.195","LAUNCH_DATE":"2021-04-07","RCS_SIZE":"LARGE","RA_OF_ASC_NODE":"236.0924","DECAY_DATE":null,"TIME_SYSTEM":"UTC","TLE_LINE1":"1 48141U 21027BB  22071.85650342 -.00002838  00000-0 -17172-3 0  9999","INCLINATION":"53.0521","COUNTRY_CODE":"US","OBJECT_TYPE":"PAYLOAD","EPHEMERIS_TYPE":"0","MEAN_ELEMENT_THEORY":"SGP4","GP_ID":"198604723","MEAN_MOTION":"15.06397105","MEAN_ANOMALY":"280.7934","ELEMENT_SET_NO":"999","REF_FRAME":"TEME","PERIOD":"95.592","ARG_OF_PERICENTER":"79.3222","OBJECT_ID":"2021-027BB","MEAN_MOTION_DOT":"-0.00002838","OBJECT_NAME":"STARLINK-2484","FILE":"3356931","SEMIMAJOR_AXIS":"6925.357","APOAPSIS":"548.250","MEAN_MOTION_DDOT":"0.0000000000000","REV_AT_EPOCH":"5270","SITE":"AFETR","BSTAR":"-0.00017172000000","CENTER_NAME":"EARTH","ECCENTRICITY":"0.00014840","EPOCH":"2022-03-12T20:33:21.895488","NORAD_CAT_ID":"48141"},{"REV_AT_EPOCH":"5295","SITE":"AFETR","BSTAR":"0.00011268000000","APOAPSIS":"548.027","MEAN_MOTION_DDOT":"0.0000000000000","EPOCH":"2022-03-12T17:30:15.768288","NORAD_CAT_ID":"48142","CENTER_NAME":"EARTH","ECCENTRICITY":"0.00011880","ARG_OF_PERICENTER":"79.6964","OBJECT_ID":"2021-027BC","ELEMENT_SET_NO":"999","REF_FRAME":"TEME","PERIOD":"95.592","OBJECT_NAME":"STARLINK-2485","FILE":"3356931","SEMIMAJOR_AXIS":"6925.339","MEAN_MOTION_DOT":"0.00001397","EPHEMERIS_TYPE":"0","MEAN_ELEMENT_THEORY":"SGP4","GP_ID":"198605475","MEAN_MOTION":"15.06402960","MEAN_ANOMALY":"280.4159","LAUNCH_DATE":"2021-04-07","RCS_SIZE":"LARGE","RA_OF_ASC_NODE":"216.6631","CLASSIFICATION_TYPE":"U","TLE_LINE2":"2 48142  53.0537 216.6631 0001188  79.6964 280.4159 15.06402960 52951","PERIAPSIS":"546.382","TLE_LINE1":"1 48142U 21027BC  22071.72934917  .00001397  00000-0  11268-3 0  9996","COUNTRY_CODE":"US","INCLINATION":"53.0537","OBJECT_TYPE":"PAYLOAD","DECAY_DATE":null,"TIME_SYSTEM":"UTC"},{"MEAN_MOTION_DOT":"0.00000297","OBJECT_NAME":"STARLINK-2486","FILE":"3356931","SEMIMAJOR_AXIS":"6925.326","REF_FRAME":"TEME","ELEMENT_SET_NO":"999","PERIOD":"95.592","OBJECT_ID":"2021-027BD","ARG_OF_PERICENTER":"70.6942","ECCENTRICITY":"0.00013550","CENTER_NAME":"EARTH","EPOCH":"2022-03-12T17:05:39.793632","NORAD_CAT_ID":"48143","APOAPSIS":"548.130","MEAN_MOTION_DDOT":"0.0000000000000","REV_AT_EPOCH":"5357","SITE":"AFETR","BSTAR":"0.00003880100000","DECAY_DATE":null,"TIME_SYSTEM":"UTC","TLE_LINE1":"1 48143U 21027BD  22071.71226613  .00000297  00000-0  38801-4 0  9994","COUNTRY_CODE":"US","INCLINATION":"53.0556","OBJECT_TYPE":"PAYLOAD","CLASSIFICATION_TYPE":"U","TLE_LINE2":"2 48143  53.0556 171.7372 0001355  70.6942 289.4193 15.06407218 53576","PERIAPSIS":"546.253","LAUNCH_DATE":"2021-04-07","RCS_SIZE":"LARGE","RA_OF_ASC_NODE":"171.7372","MEAN_MOTION":"15.06407218","MEAN_ANOMALY":"289.4193","EPHEMERIS_TYPE":"0","GP_ID":"198605225","MEAN_ELEMENT_THEORY":"SGP4"}];
